{
  "type": "FeatureCollection",
  "features": [
    {
      "type": "Feature",
      "properties": {
        "norad_id": 44334,
        "name": "EUTELSAT 7C",
        "group": "eutelsat",
        "lat": -0.047082859460058676,
        "lon": 92.82689258422886,
        "alt_km": 35798.954120385766,
        "timestamp": "2025-12-22T23:36:20.371543+00:00",
        "meta_object_name": "EUTELSAT 7C",
        "meta_object_id": "2019-034B",
        "meta_epoch": "2025-12-22T03:54:38.524896",
        "meta_mean_motion": 1.00270429,
        "meta_eccentricity": 0.00031022,
        "meta_inclination": 0.0729,
        "meta_ra_of_asc_node": 180.3118,
        "meta_arg_of_pericenter": 75.1349,
        "meta_mean_anomaly": 261.1679,
        "meta_ephemeris_type": 0,
        "meta_classification_type": "U",
        "meta_norad_cat_id": 44334,
        "meta_element_set_no": 999,
        "meta_rev_at_epoch": 506,
        "meta_bstar": 0,
        "meta_mean_motion_dot": 7e-07,
        "meta_mean_motion_ddot": 0,
        "tle_line1": "1 44334U 19034B   25356.16294589  .00000070  00000+0  00000+0 0  9995",
        "tle_line2": "2 44334   0.0729 180.3118 0003102  75.1349 261.1679  1.00270429  5063"
      },
      "geometry": {
        "type": "Point",
        "coordinates": [
          92.82689258422886,
          -0.047082859460058676
        ]
      }
    },
    {
      "type": "Feature",
      "properties": {
        "norad_id": 44624,
        "name": "EUTELSAT 5 WEST B",
        "group": "eutelsat",
        "lat": 0.08648740033548027,
        "lon": 80.86717596227561,
        "alt_km": 35798.854953346934,
        "timestamp": "2025-12-22T23:36:20.371555+00:00",
        "meta_object_name": "EUTELSAT 5 WEST B",
        "meta_object_id": "2019-067A",
        "meta_epoch": "2025-12-22T06:17:32.611200",
        "meta_mean_motion": 1.00271351,
        "meta_eccentricity": 0.00030366,
        "meta_inclination": 0.0656,
        "meta_ra_of_asc_node": 338.4706,
        "meta_arg_of_pericenter": 292.1222,
        "meta_mean_anomaly": 269.8665,
        "meta_ephemeris_type": 0,
        "meta_classification_type": "U",
        "meta_norad_cat_id": 44624,
        "meta_element_set_no": 999,
        "meta_rev_at_epoch": 2266,
        "meta_bstar": 0,
        "meta_mean_motion_dot": -2e-07,
        "meta_mean_motion_ddot": 0,
        "tle_line1": "1 44624U 19067A   25356.26218300 -.00000020  00000+0  00000+0 0  9997",
        "tle_line2": "2 44624   0.0656 338.4706 0003036 292.1222 269.8665  1.00271351 22660"
      },
      "geometry": {
        "type": "Point",
        "coordinates": [
          80.86717596227561,
          0.08648740033548027
        ]
      }
    },
    {
      "type": "Feature",
      "properties": {
        "norad_id": 45027,
        "name": "EUTELSAT KONNECT",
        "group": "eutelsat",
        "lat": 0.021677890371905314,
        "lon": 93.0619556020028,
        "alt_km": 35791.8794493395,
        "timestamp": "2025-12-22T23:36:20.371567+00:00",
        "meta_object_name": "EUTELSAT KONNECT",
        "meta_object_id": "2020-005B",
        "meta_epoch": "2025-12-22T08:03:44.941248",
        "meta_mean_motion": 1.00271114,
        "meta_eccentricity": 0.00013432,
        "meta_inclination": 0.071,
        "meta_ra_of_asc_node": 94.4695,
        "meta_arg_of_pericenter": 184.6256,
        "meta_mean_anomaly": 300.1874,
        "meta_ephemeris_type": 0,
        "meta_classification_type": "U",
        "meta_norad_cat_id": 45027,
        "meta_element_set_no": 999,
        "meta_rev_at_epoch": 2256,
        "meta_bstar": 0,
        "meta_mean_motion_dot": 7.1e-07,
        "meta_mean_motion_ddot": 0,
        "tle_line1": "1 45027U 20005B   25356.33593682  .00000071  00000+0  00000+0 0  9991",
        "tle_line2": "2 45027   0.0710  94.4695 0001343 184.6256 300.1874  1.00271114 22563"
      },
      "geometry": {
        "type": "Point",
        "coordinates": [
          93.0619556020028,
          0.021677890371905314
        ]
      }
    },
    {
      "type": "Feature",
      "properties": {
        "norad_id": 49056,
        "name": "EUTELSAT QUANTUM",
        "group": "eutelsat",
        "lat": 0.026971090214241673,
        "lon": 133.5449186706104,
        "alt_km": 35798.353611872866,
        "timestamp": "2025-12-22T23:36:20.371578+00:00",
        "meta_object_name": "EUTELSAT QUANTUM",
        "meta_object_id": "2021-069B",
        "meta_epoch": "2025-12-22T11:40:46.657632",
        "meta_mean_motion": 1.00271848,
        "meta_eccentricity": 0.00034514,
        "meta_inclination": 0.0103,
        "meta_ra_of_asc_node": 0.7201,
        "meta_arg_of_pericenter": 280.5392,
        "meta_mean_anomaly": 32.9332,
        "meta_ephemeris_type": 0,
        "meta_classification_type": "U",
        "meta_norad_cat_id": 49056,
        "meta_element_set_no": 999,
        "meta_rev_at_epoch": 1615,
        "meta_bstar": 0,
        "meta_mean_motion_dot": 1.48e-06,
        "meta_mean_motion_ddot": 0,
        "tle_line1": "1 49056U 21069B   25356.48665113  .00000148  00000+0  00000+0 0  9998",
        "tle_line2": "2 49056   0.0103   0.7201 0003451 280.5392  32.9332  1.00271848 16158"
      },
      "geometry": {
        "type": "Point",
        "coordinates": [
          133.5449186706104,
          0.026971090214241673
        ]
      }
    },
    {
      "type": "Feature",
      "properties": {
        "norad_id": 53765,
        "name": "EUTELSAT KONNECT VHTS",
        "group": "eutelsat",
        "lat": 0.012923949311428928,
        "lon": 88.57646143384476,
        "alt_km": 35796.33036143129,
        "timestamp": "2025-12-22T23:36:20.371590+00:00",
        "meta_object_name": "EUTELSAT KONNECT VHTS",
        "meta_object_id": "2022-110A",
        "meta_epoch": "2025-12-22T06:19:47.396064",
        "meta_mean_motion": 1.00268157,
        "meta_eccentricity": 0.00023759,
        "meta_inclination": 0.0607,
        "meta_ra_of_asc_node": 98.8524,
        "meta_arg_of_pericenter": 146.8852,
        "meta_mean_anomaly": 303.0184,
        "meta_ephemeris_type": 0,
        "meta_classification_type": "U",
        "meta_norad_cat_id": 53765,
        "meta_element_set_no": 999,
        "meta_rev_at_epoch": 505,
        "meta_bstar": 0,
        "meta_mean_motion_dot": 3.9e-07,
        "meta_mean_motion_ddot": 0,
        "tle_line1": "1 53765U 22110A   25356.26374301  .00000039  00000+0  00000+0 0  9999",
        "tle_line2": "2 53765   0.0607  98.8524 0002375 146.8852 303.0184  1.00268157  5057"
      },
      "geometry": {
        "type": "Point",
        "coordinates": [
          88.57646143384476,
          0.012923949311428928
        ]
      }
    },
    {
      "type": "Feature",
      "properties": {
        "norad_id": 54048,
        "name": "EUTELSAT HOTBIRD 13F",
        "group": "eutelsat",
        "lat": 0.032033214255688953,
        "lon": 98.8828778357841,
        "alt_km": 35786.806720232766,
        "timestamp": "2025-12-22T23:36:20.371602+00:00",
        "meta_object_name": "EUTELSAT HOTBIRD 13F",
        "meta_object_id": "2022-134A",
        "meta_epoch": "2025-12-21T21:49:07.084128",
        "meta_mean_motion": 1.00271763,
        "meta_eccentricity": 0.00022808,
        "meta_inclination": 0.0525,
        "meta_ra_of_asc_node": 292.4073,
        "meta_arg_of_pericenter": 71.4737,
        "meta_mean_anomaly": 67.1177,
        "meta_ephemeris_type": 0,
        "meta_classification_type": "U",
        "meta_norad_cat_id": 54048,
        "meta_element_set_no": 999,
        "meta_rev_at_epoch": 1160,
        "meta_bstar": 0,
        "meta_mean_motion_dot": 1.09e-06,
        "meta_mean_motion_ddot": 0,
        "tle_line1": "1 54048U 22134A   25355.90910977  .00000109  00000+0  00000+0 0  9993",
        "tle_line2": "2 54048   0.0525 292.4073 0002280  71.4737  67.1177  1.00271763 11607"
      },
      "geometry": {
        "type": "Point",
        "coordinates": [
          98.8828778357841,
          0.032033214255688953
        ]
      }
    },
    {
      "type": "Feature",
      "properties": {
        "norad_id": 54225,
        "name": "EUTELSAT HOTBIRD 13G",
        "group": "eutelsat",
        "lat": -0.0006219318601696509,
        "lon": 98.89080802528122,
        "alt_km": 35782.88695670513,
        "timestamp": "2025-12-22T23:36:20.371614+00:00",
        "meta_object_name": "EUTELSAT HOTBIRD 13G",
        "meta_object_id": "2022-146A",
        "meta_epoch": "2025-12-22T04:02:38.705856",
        "meta_mean_motion": 1.00287196,
        "meta_eccentricity": 6.245e-05,
        "meta_inclination": 0.0535,
        "meta_ra_of_asc_node": 228.1743,
        "meta_arg_of_pericenter": 347.6873,
        "meta_mean_anomaly": 308.7697,
        "meta_ephemeris_type": 0,
        "meta_classification_type": "U",
        "meta_norad_cat_id": 54225,
        "meta_element_set_no": 999,
        "meta_rev_at_epoch": 569,
        "meta_bstar": 0,
        "meta_mean_motion_dot": 1.11e-06,
        "meta_mean_motion_ddot": 0,
        "tle_line1": "1 54225U 22146A   25356.16850354  .00000111  00000+0  00000+0 0  9997",
        "tle_line2": "2 54225   0.0535 228.1743 0000624 347.6873 308.7697  1.00287196  5694"
      },
      "geometry": {
        "type": "Point",
        "coordinates": [
          98.89080802528122,
          -0.0006219318601696509
        ]
      }
    }
  ]
}